ISS OBJECT XY           
1 66912U 98067XY  26073.94811659  .00114837  00000+0  11444-2 0  9994
2 66912  51.6268  40.5165 0003436 120.1038 240.0298 15.64801890 15975
KNACKSAT-2              
1 67683U 98067XZ  26074.32929412  .00046999  00000+0  75946-3 0  9991
2 67683  51.6309  43.8170 0009595 205.6591 154.3924 15.52335370  5664
GXIBA-1                 
1 67684U 98067YA  26074.16359621  .00089870  00000+0  12893-2 0  9999
2 67684  51.6308  44.2101 0011613 194.5368 165.5291 15.55303960  5647
CORAL                   
1 67685U 98067YB  26074.19471975  .00051896  00000+0  82451-3 0  9995
2 67685  51.6319  44.4177 0011534 201.7026 158.3476 15.52739690  5644
ISS OBJECT YC           
1 67686U 98067YC  26074.63740536  .00052171  00000+0  80898-3 0  9997
2 67686  51.6318  42.1267 0008354 172.2872 187.8249 15.53445350  5717
LEOPARD                 
1 67687U 98067YD  26074.45500388  .00044081  00000+0  70811-3 0  9992
2 67687  51.6313  43.1584 0008139 175.2316 184.8753 15.52542575  5604
ISS OBJECT YE           
1 67688U 98067YE  26074.19056187  .00057311  00000+0  89873-3 0  9995
2 67688  51.6315  44.3921 0008255 171.8524 188.2602 15.53094941  5563
CREW DRAGON 12          
1 67796U 26031A   26074.25700838  .00009576  00000+0  18620-3 0  9995
2 67796  51.6330  44.8327 0006349 192.8038 167.2790 15.48289699557095
